PROBA-1                 
1 26958U 01049B   23179.43411242  .00001762  00000+0  14584-3 0  9997
2 26958  97.8715 145.8819 0069242 168.3620 191.9223 14.98395429180723
BIRD 2                  
1 26959U 01049C   23179.30629554  .00070424  00000+0  53994-3 0  9990
2 26959  97.7726 307.1151 0002952 107.5187 252.6397 15.71883999205298
CUTE-1 (CO-55)          
1 27844U 03031E   23179.00924063  .00000417  00000+0  20531-3 0  9993
2 27844  98.6769 186.1068 0011106  94.1270 266.1177 14.22799878 37304
CUBESAT XI-IV (CO-57)   
1 27848U 03031J   23178.46128129  .00000378  00000+0  18951-3 0  9994
2 27848  98.6806 185.9787 0010931 108.9644 251.2719 14.22307815 37010
GENESIS 1               
1 29252U 06029A   23179.00830634  .00009581  00000+0  36395-3 0  9994
2 29252  64.5203 273.0237 0023560 212.6877 147.2794 15.27068945936240
GENESIS 2               
1 31789U 07028A   23179.50316677  .00008252  00000+0  31547-3 0  9991
2 31789  64.4949 315.6098 0057022 259.8877  99.5814 15.25737318883197
APRIZESAT 4             
1 35684U 09041D   23178.81173036  .00000892  00000+0  12250-3 0  9991
2 35684  98.2828 209.9661 0045193 225.6075 134.1432 14.80394681750630
APRIZESAT 3             
1 35686U 09041F   23179.21895886  .00001826  00000+0  19035-3 0  9998
2 35686  98.0999 279.2582 0071005  38.1781 322.4434 14.89272447754556
PROBA-2                 
1 36037U 09059B   23178.43259210  .00000328  00000+0  89240-4 0  9998
2 36037  98.2263   3.0889 0014149  37.2114 323.0060 14.53548436723814
APRIZESAT 5             
1 37792U 11044E   23179.24786536  .00000902  00000+0  13413-3 0  9996
2 37792  98.2761  69.7820 0055570 244.7815 114.7627 14.76590455638571
APRIZESAT 6             
1 37793U 11044F   23178.42449550  .00000852  00000+0  13781-3 0  9990
2 37793  98.3528  47.3302 0045036 308.2184 226.4505 14.73461790637214
PROBA-V                 
1 39159U 13021A   23179.03568124  .00000122  00000+0  71932-4 0  9995
2 39159  98.3189 200.1886 0005405  76.7567 283.4215 14.23124200526742
APRIZESAT 7             
1 39416U 13066A   23178.81822205  .00001369  00000+0  16192-3 0  9998
2 39416  97.6198 146.5198 0039245 198.8205 161.1562 14.85654248519773
APRIZESAT 8             
1 39425U 13066K   23179.44958562  .00001073  00000+0  13694-3 0  9990
2 39425  97.6788 139.4785 0048944 248.3113 111.2885 14.82664573518925
BUGSAT-1 (TITA)         
1 40014U 14033E   23179.36836205  .00002717  00000+0  22408-3 0  9990
2 40014  98.1349 198.8389 0030083 233.5525 126.2923 14.99611518492409
SAUDISAT 4              
1 40016U 14033G   23179.45698046  .00000691  00000+0  10511-3 0  9992
2 40016  97.6417 358.6972 0047607   2.9176 357.2304 14.76207158485873
APRIZESAT 9             
1 40018U 14033J   23179.41253776  .00000894  00000+0  14791-3 0  9996
2 40018  97.7550 335.7922 0071620  86.5280 274.4116 14.70954013484032
APRIZESAT 10            
1 40019U 14033K   23179.37909383  .00001002  00000+0  17423-3 0  9991
2 40019  97.8172 326.3941 0083968 136.2146 224.5759 14.67942119483110
TDS 1                   
1 40076U 14037H   23178.69179144  .00003995  00000+0  43390-3 0  9991
2 40076  98.3443  76.3565 0005189 306.3403  53.7333 14.88733661485541
TIANTUO 2               
1 40144U 14053B   23179.42155506  .00010739  00000+0  22588-3 0  9993
2 40144  97.1598 257.7072 0007373 273.8369  86.2038 15.45453359492985
TECHNOSAT               
1 42829U 17042E   23179.44406304  .00002507  00000+0  24163-3 0  9998
2 42829  97.3893  16.2147 0013258 180.7168 179.4036 14.93691356324171
FLYING LAPTOP           
1 42831U 17042G   23178.47658105  .00001774  00000+0  17485-3 0  9995
2 42831  97.3911  15.6014 0013250 185.3987 174.7093 14.93127932324022
HAWK-A                  
1 43765U 18099H   23178.80289634  .00003950  00000+0  32551-3 0  9998
2 43765  97.5740 241.7507 0016878  87.0712 273.2443 14.99506385249336
HAWK-B                  
1 43794U 18099AN  23179.13691669  .00003660  00000+0  30193-3 0  9990
2 43794  97.5742 242.0747 0016891  86.1471 274.1683 14.99509998249370
HAWK-C                  
1 43799U 18099AT  23178.80306966  .00003951  00000+0  32564-3 0  9998
2 43799  97.5738 241.6499 0016809  86.9057 273.4089 14.99504658249321
SALSAT                  
1 46495U 20068K   23172.83279536  .00004036  00000+0  26739-3 0  9994
2 46495  97.7704 120.8847 0017405 103.1112 257.2059 15.07774126149778
